start=new Date('2023-01-22T00:00:00.000Z').valueOf();
sats=[{"REF_FRAME":"TEME","LAUNCH_DATE":"2022-03-09","APOAPSIS":"540.952","CENTER_NAME":"EARTH","EPHEMERIS_TYPE":"0","MEAN_ELEMENT_THEORY":"SGP4","OBJECT_TYPE":"PAYLOAD","GP_ID":"223576103","COUNTRY_CODE":"US","FILE":"3757098","ECCENTRICITY":"0.00017430","CLASSIFICATION_TYPE":"U","SEMIMAJOR_AXIS":"6917.882","MEAN_ANOMALY":"258.9658","OBJECT_ID":"2022-025AW","TLE_LINE2":"2 52000  53.2155 110.4222 0001743 101.1530 258.9658 15.08839584 49892","BSTAR":"0.00005064600000","MEAN_MOTION":"15.08839584","PERIAPSIS":"538.541","TIME_SYSTEM":"UTC","RA_OF_ASC_NODE":"110.4222","OBJECT_NAME":"STARLINK-3653","MEAN_MOTION_DDOT":"0.0000000000000","TLE_LINE1":"1 52000U 22025AW  23021.65303910  .00000518  00000-0  50646-4 0  9992","RCS_SIZE":"LARGE","INCLINATION":"53.2155","DECAY_DATE":null,"MEAN_MOTION_DOT":"0.00000518","EPOCH":"2023-01-21T15:40:22.578240","REV_AT_EPOCH":"4989","SITE":"AFETR","ARG_OF_PERICENTER":"101.1530","PERIOD":"95.438","NORAD_CAT_ID":"52000","ELEMENT_SET_NO":"999"},{"REV_AT_EPOCH":"4986","SITE":"AFETR","EPOCH":"2023-01-21T10:58:09.234912","PERIOD":"95.437","ARG_OF_PERICENTER":"87.2617","ELEMENT_SET_NO":"999","NORAD_CAT_ID":"52001","BSTAR":"0.00024757000000","MEAN_MOTION":"15.08848934","OBJECT_NAME":"STARLINK-3659","MEAN_MOTION_DDOT":"0.0000000000000","PERIAPSIS":"538.761","TIME_SYSTEM":"UTC","RA_OF_ASC_NODE":"111.3027","TLE_LINE1":"1 52001U 22025AX  23021.45705133  .00003655  00000-0  24757-3 0  9992","DECAY_DATE":null,"MEAN_MOTION_DOT":"0.00003655","RCS_SIZE":"LARGE","INCLINATION":"53.2162","FILE":"3756862","ECCENTRICITY":"0.00013830","CLASSIFICATION_TYPE":"U","MEAN_ANOMALY":"272.8533","OBJECT_ID":"2022-025AX","TLE_LINE2":"2 52001  53.2162 111.3027 0001383  87.2617 272.8533 15.08848934 49867","SEMIMAJOR_AXIS":"6917.853","EPHEMERIS_TYPE":"0","CENTER_NAME":"EARTH","MEAN_ELEMENT_THEORY":"SGP4","REF_FRAME":"TEME","LAUNCH_DATE":"2022-03-09","APOAPSIS":"540.675","OBJECT_TYPE":"PAYLOAD","COUNTRY_CODE":"US","GP_ID":"223570216"},{"OBJECT_NAME":"STARLINK-3668","MEAN_MOTION_DDOT":"0.0000000000000","PERIAPSIS":"538.566","TIME_SYSTEM":"UTC","RA_OF_ASC_NODE":"111.3124","BSTAR":"0.00062961000000","MEAN_MOTION":"15.08849998","DECAY_DATE":null,"MEAN_MOTION_DOT":"0.00009749","RCS_SIZE":"LARGE","INCLINATION":"53.2168","TLE_LINE1":"1 52002U 22025AY  23021.45337089  .00009749  00000-0  62961-3 0  9993","REV_AT_EPOCH":"4984","SITE":"AFETR","EPOCH":"2023-01-21T10:52:51.244896","NORAD_CAT_ID":"52002","ELEMENT_SET_NO":"999","PERIOD":"95.437","ARG_OF_PERICENTER":"104.1099","OBJECT_TYPE":"PAYLOAD","CENTER_NAME":"EARTH","EPHEMERIS_TYPE":"0","MEAN_ELEMENT_THEORY":"SGP4","REF_FRAME":"TEME","LAUNCH_DATE":"2022-03-09","APOAPSIS":"540.864","COUNTRY_CODE":"US","GP_ID":"223570763","ECCENTRICITY":"0.00016610","FILE":"3756865","OBJECT_ID":"2022-025AY","MEAN_ANOMALY":"256.0078","TLE_LINE2":"2 52002  53.2168 111.3124 0001661 104.1099 256.0078 15.08849998 49841","SEMIMAJOR_AXIS":"6917.850","CLASSIFICATION_TYPE":"U"},{"SITE":"AFETR","REV_AT_EPOCH":"4984","EPOCH":"2023-01-21T10:47:33.156384","ELEMENT_SET_NO":"999","NORAD_CAT_ID":"52003","PERIOD":"95.437","ARG_OF_PERICENTER":"86.3803","MEAN_MOTION_DDOT":"0.0000000000000","OBJECT_NAME":"STARLINK-3654","TIME_SYSTEM":"UTC","RA_OF_ASC_NODE":"111.3344","PERIAPSIS":"538.739","BSTAR":"0.00067770000000","MEAN_MOTION":"15.08853831","MEAN_MOTION_DOT":"0.00010518","DECAY_DATE":null,"INCLINATION":"53.2157","RCS_SIZE":"LARGE","TLE_LINE1":"1 52003U 22025AZ  23021.44968931  .00010518  00000-0  67770-3 0  9998","ECCENTRICITY":"0.00013940","FILE":"3756943","TLE_LINE2":"2 52003  53.2157 111.3344 0001394  86.3803 273.7348 15.08853831 49848","OBJECT_ID":"2022-025AZ","MEAN_ANOMALY":"273.7348","SEMIMAJOR_AXIS":"6917.838","CLASSIFICATION_TYPE":"U","OBJECT_TYPE":"PAYLOAD","MEAN_ELEMENT_THEORY":"SGP4","CENTER_NAME":"EARTH","EPHEMERIS_TYPE":"0","APOAPSIS":"540.667","LAUNCH_DATE":"2022-03-09","REF_FRAME":"TEME","GP_ID":"223572535","COUNTRY_CODE":"US"},{"EPOCH":"2023-01-21T10:27:42.115104","REV_AT_EPOCH":"4960","SITE":"AFETR","ELEMENT_SET_NO":"999","NORAD_CAT_ID":"52088","ARG_OF_PERICENTER":"105.0028","PERIOD":"95.437","PERIAPSIS":"539.042","RA_OF_ASC_NODE":"71.1931","TIME_SYSTEM":"UTC","OBJECT_NAME":"STARLINK-3537","MEAN_MOTION_DDOT":"0.0000000000000","BSTAR":"0.00226840000000","MEAN_MOTION":"15.08854338","RCS_SIZE":"LARGE","INCLINATION":"53.2190","DECAY_DATE":null,"MEAN_MOTION_DOT":"0.00036012","TLE_LINE1":"1 52088U 22029A   23021.43590411  .00036012  00000-0  22684-2 0  9999","ECCENTRICITY":"0.00009540","FILE":"3757115","SEMIMAJOR_AXIS":"6917.837","OBJECT_ID":"2022-029A","MEAN_ANOMALY":"255.1070","TLE_LINE2":"2 52088  53.2190  71.1931 0000954 105.0028 255.1070 15.08854338 49605","CLASSIFICATION_TYPE":"U","OBJECT_TYPE":"PAYLOAD","REF_FRAME":"TEME","LAUNCH_DATE":"2022-03-19","APOAPSIS":"540.362","CENTER_NAME":"EARTH","EPHEMERIS_TYPE":"0","MEAN_ELEMENT_THEORY":"SGP4","GP_ID":"223576645","COUNTRY_CODE":"US"},{"FILE":"3757027","ECCENTRICITY":"0.00020470","CLASSIFICATION_TYPE":"U","OBJECT_ID":"2022-029B","MEAN_ANOMALY":"293.7297","TLE_LINE2":"2 52089  53.2181 181.2984 0002047  66.3910 293.7297 15.08831935 48067","SEMIMAJOR_AXIS":"6917.905","CENTER_NAME":"EARTH","EPHEMERIS_TYPE":"0","MEAN_ELEMENT_THEORY":"SGP4","LAUNCH_DATE":"2022-03-19","REF_FRAME":"TEME","APOAPSIS":"541.186","OBJECT_TYPE":"PAYLOAD","GP_ID":"223574517","COUNTRY_CODE":"US","REV_AT_EPOCH":"4806","SITE":"AFETR","EPOCH":"2023-01-21T10:54:11.161440","PERIOD":"95.438","ARG_OF_PERICENTER":"66.3910","NORAD_CAT_ID":"52089","ELEMENT_SET_NO":"999","BSTAR":"0.00003294000000","MEAN_MOTION":"15.08831935","OBJECT_NAME":"STARLINK-3722","MEAN_MOTION_DDOT":"0.0000000000000","PERIAPSIS":"538.354","RA_OF_ASC_NODE":"181.2984","TIME_SYSTEM":"UTC","TLE_LINE1":"1 52089U 22029B   23021.45429585  .00000236  00000-0  32940-4 0  9992","DECAY_DATE":null,"MEAN_MOTION_DOT":"0.00000236","RCS_SIZE":"LARGE","INCLINATION":"53.2181"},{"OBJECT_TYPE":"PAYLOAD","APOAPSIS":"541.119","LAUNCH_DATE":"2022-03-19","REF_FRAME":"TEME","MEAN_ELEMENT_THEORY":"SGP4","CENTER_NAME":"EARTH","EPHEMERIS_TYPE":"0","COUNTRY_CODE":"US","GP_ID":"223571046","ECCENTRICITY":"0.00019840","FILE":"3756888","SEMIMAJOR_AXIS":"6917.881","TLE_LINE2":"2 52090  53.2174 182.5387 0001984  66.8833 293.2368 15.08839712 48021","OBJECT_ID":"2022-029C","MEAN_ANOMALY":"293.2368","CLASSIFICATION_TYPE":"U","RA_OF_ASC_NODE":"182.5387","TIME_SYSTEM":"UTC","PERIAPSIS":"538.374","MEAN_MOTION_DDOT":"0.0000000000000","OBJECT_NAME":"STARLINK-3712","BSTAR":"0.00004065700000","MEAN_MOTION":"15.08839712","INCLINATION":"53.2174","RCS_SIZE":"LARGE","MEAN_MOTION_DOT":"0.00000359","DECAY_DATE":null,"TLE_LINE1":"1 52090U 22029C   23021.17828867  .00000359  00000-0  40657-4 0  9999","EPOCH":"2023-01-21T04:16:44.141088","SITE":"AFETR","REV_AT_EPOCH":"4802","NORAD_CAT_ID":"52090","ELEMENT_SET_NO":"999","ARG_OF_PERICENTER":"66.8833","PERIOD":"95.438"},{"COUNTRY_CODE":"US","GP_ID":"223576943","MEAN_ELEMENT_THEORY":"SGP4","EPHEMERIS_TYPE":"0","CENTER_NAME":"EARTH","APOAPSIS":"540.611","REF_FRAME":"TEME","LAUNCH_DATE":"2022-03-19","OBJECT_TYPE":"PAYLOAD","CLASSIFICATION_TYPE":"U","TLE_LINE2":"2 52091  53.2160 180.1354 0001286  85.4462 274.6677 15.08847918 48107","OBJECT_ID":"2022-029D","MEAN_ANOMALY":"274.6677","SEMIMAJOR_AXIS":"6917.856","FILE":"3757116","ECCENTRICITY":"0.00012860","TLE_LINE1":"1 52091U 22029D   23021.71556669  .00000770  00000-0  66453-4 0  9997","MEAN_MOTION_DOT":"0.00000770","DECAY_DATE":null,"INCLINATION":"53.2160","RCS_SIZE":"LARGE","BSTAR":"0.00006645300000","MEAN_MOTION":"15.08847918","MEAN_MOTION_DDOT":"0.0000000000000","OBJECT_NAME":"STARLINK-3713","TIME_SYSTEM":"UTC","RA_OF_ASC_NODE":"180.1354","PERIAPSIS":"538.832","PERIOD":"95.437","ARG_OF_PERICENTER":"85.4462","ELEMENT_SET_NO":"999","NORAD_CAT_ID":"52091","SITE":"AFETR","REV_AT_EPOCH":"4810","EPOCH":"2023-01-21T17:10:24.962016"},{"PERIOD":"95.438","ARG_OF_PERICENTER":"53.5501","NORAD_CAT_ID":"52092","ELEMENT_SET_NO":"999","SITE":"AFETR","REV_AT_EPOCH":"4802","EPOCH":"2023-01-21T04:22:01.926336","TLE_LINE1":"1 52092U 22029E   23021.18196674  .00002081  00000-0  14882-3 0  9990","MEAN_MOTION_DOT":"0.00002081","DECAY_DATE":null,"INCLINATION":"53.2166","RCS_SIZE":"LARGE","BSTAR":"0.00014882000000","MEAN_MOTION":"15.08836256","MEAN_MOTION_DDOT":"0.0000000000000","OBJECT_NAME":"STARLINK-3716","TIME_SYSTEM":"UTC","RA_OF_ASC_NODE":"182.5326","PERIAPSIS":"538.298","CLASSIFICATION_TYPE":"U","TLE_LINE2":"2 52092  53.2166 182.5326 0002109  53.5501 306.5685 15.08836256 48022","OBJECT_ID":"2022-029E","MEAN_ANOMALY":"306.5685","SEMIMAJOR_AXIS":"6917.892","FILE":"3756748","ECCENTRICITY":"0.00021090","COUNTRY_CODE":"US","GP_ID":"223567884","MEAN_ELEMENT_THEORY":"SGP4","CENTER_NAME":"EARTH","EPHEMERIS_TYPE":"0","APOAPSIS":"541.216","LAUNCH_DATE":"2022-03-19","REF_FRAME":"TEME","OBJECT_TYPE":"PAYLOAD"},{"GP_ID":"223576683","COUNTRY_CODE":"US","OBJECT_TYPE":"PAYLOAD","CENTER_NAME":"EARTH","EPHEMERIS_TYPE":"0","MEAN_ELEMENT_THEORY":"SGP4","LAUNCH_DATE":"2022-03-19","REF_FRAME":"TEME","APOAPSIS":"541.230","OBJECT_ID":"2022-029F","MEAN_ANOMALY":"295.4110","TLE_LINE2":"2 52093  53.2158 180.2053 0002170  64.7106 295.4110 15.08845496 48103","SEMIMAJOR_AXIS":"6917.864","CLASSIFICATION_TYPE":"U","ECCENTRICITY":"0.00021700","FILE":"3757117","DECAY_DATE":null,"MEAN_MOTION_DOT":"0.00002288","RCS_SIZE":"LARGE","INCLINATION":"53.2158","TLE_LINE1":"1 52093U 22029F   23021.70084718  .00002288  00000-0  16178-3 0  9993","OBJECT_NAME":"STARLINK-3673","MEAN_MOTION_DDOT":"0.0000000000000","PERIAPSIS":"538.227","TIME_SYSTEM":"UTC","RA_OF_ASC_NODE":"180.2053","BSTAR":"0.00016178000000","MEAN_MOTION":"15.08845496","ELEMENT_SET_NO":"999","NORAD_CAT_ID":"52093","PERIOD":"95.437","ARG_OF_PERICENTER":"64.7106","REV_AT_EPOCH":"4810","SITE":"AFETR","EPOCH":"2023-01-21T16:49:13.196352"}];
